[{"OBJECT_NAME":"LYNK TOWER 5","OBJECT_ID":"2024-043Z","EPOCH":"2026-03-09T22:11:51.175104","MEAN_MOTION":15.29454506,"ECCENTRICITY":0.00104056,"INCLINATION":97.5458,"RA_OF_ASC_NODE":204.7305,"ARG_OF_PERICENTER":234.6422,"MEAN_ANOMALY":125.3846,"EPHEMERIS_TYPE":0,"CLASSIFICATION_TYPE":"U","NORAD_CAT_ID":59121,"ELEMENT_SET_NO":999,"REV_AT_EPOCH":11186,"BSTAR":0.00031901545,"MEAN_MOTION_DOT":9.048e-5,"MEAN_MOTION_DDOT":0},{"OBJECT_NAME":"STARLINK-32298","OBJECT_ID":"2024-183S","EPOCH":"2026-03-09T11:17:51.205056","MEAN_MOTION":15.30197754,"ECCENTRICITY":0.0001257,"INCLINATION":53.1612,"RA_OF_ASC_NODE":143.1144,"ARG_OF_PERICENTER":88.4931,"MEAN_ANOMALY":271.6213,"EPHEMERIS_TYPE":0,"CLASSIFICATION_TYPE":"U","NORAD_CAT_ID":61525,"ELEMENT_SET_NO":999,"REV_AT_EPOCH":7962,"BSTAR":7.3648029e-5,"MEAN_MOTION_DOT":1.822e-5,"MEAN_MOTION_DDOT":0}]
